[{"OBJECT_NAME":"YAOGAN-30 06B","OBJECT_ID":"2019-045B","EPOCH":"2026-03-09T20:57:59.211936","MEAN_MOTION":15.02091105,"ECCENTRICITY":0.00094792,"INCLINATION":34.9914,"RA_OF_ASC_NODE":214.7206,"ARG_OF_PERICENTER":283.6936,"MEAN_ANOMALY":76.2717,"EPHEMERIS_TYPE":0,"CLASSIFICATION_TYPE":"U","NORAD_CAT_ID":44450,"ELEMENT_SET_NO":999,"REV_AT_EPOCH":36171,"BSTAR":0.00031633807,"MEAN_MOTION_DOT":4.217e-5,"MEAN_MOTION_DDOT":0},{"OBJECT_NAME":"STARLINK-34570","OBJECT_ID":"2025-152U","EPOCH":"2026-03-09T13:17:59.209728","MEAN_MOTION":15.05651495,"ECCENTRICITY":0.00016056,"INCLINATION":97.6024,"RA_OF_ASC_NODE":285.3323,"ARG_OF_PERICENTER":87.4298,"MEAN_ANOMALY":272.7113,"EPHEMERIS_TYPE":0,"CLASSIFICATION_TYPE":"U","NORAD_CAT_ID":64860,"ELEMENT_SET_NO":999,"REV_AT_EPOCH":3539,"BSTAR":0.00021329761,"MEAN_MOTION_DOT":3.018e-5,"MEAN_MOTION_DDOT":0}]
